1998-067XU              
1 66908U 98067XU  26024.73143911  .00107534  00000+0  13800-2 0  9995
2 66908  51.6284 287.8746 0003159 113.2223 246.9102 15.58285977  8303
SILVERSAT               
1 66909U 98067XV  26024.71745628  .00119439  00000+0  14729-2 0  9995
2 66909  51.6293 287.7824 0003458 127.2797 232.8511 15.59288682  8308
1998-067XW              
1 66910U 98067XW  26024.72242247  .00099072  00000+0  12615-2 0  9999
2 66910  51.6289 287.8128 0001840 105.2076 254.9120 15.58535861  8306
1998-067XX              
1 66911U 98067XX  26024.76212816  .00130264  00000+0  15417-2 0  9995
2 66911  51.6271 287.3275 0002356 137.8769 222.2406 15.60326118  8300
1998-067XY              
1 66912U 98067XY  26024.76119113  .00076682  00000+0  10616-2 0  9991
2 66912  51.6291 288.0745 0002879  92.7401 267.3920 15.56408816  8295
