CCSDS_OMM_VERS = 2.0
CREATION_DATE  = 
ORIGINATOR     = 

OBJECT_NAME    = 1998-067XU
OBJECT_ID      = 1998-067XU
CENTER_NAME    = EARTH
REF_FRAME      = TEME
TIME_SYSTEM    = UTC
MEAN_ELEMENT_THEORY = SGP/SGP4

EPOCH          = 2026-01-24T17:33:16.339104
MEAN_MOTION    = 15.58285977
ECCENTRICITY   = .00031594
INCLINATION    = 51.6284
RA_OF_ASC_NODE = 287.8746
ARG_OF_PERICENTER = 113.2223
MEAN_ANOMALY   = 246.9102

EPHEMERIS_TYPE = 0
CLASSIFICATION_TYPE = U
NORAD_CAT_ID   = 66908
ELEMENT_SET_NO = 999
REV_AT_EPOCH   = 830
BSTAR          = .13800288E-2
MEAN_MOTION_DOT = .107534E-2
MEAN_MOTION_DDOT = 0

CCSDS_OMM_VERS = 2.0
CREATION_DATE  = 
ORIGINATOR     = 

OBJECT_NAME    = SILVERSAT
OBJECT_ID      = 1998-067XV
CENTER_NAME    = EARTH
REF_FRAME      = TEME
TIME_SYSTEM    = UTC
MEAN_ELEMENT_THEORY = SGP/SGP4

EPOCH          = 2026-01-24T17:13:08.222592
MEAN_MOTION    = 15.59288682
ECCENTRICITY   = .00034581
INCLINATION    = 51.6293
RA_OF_ASC_NODE = 287.7824
ARG_OF_PERICENTER = 127.2797
MEAN_ANOMALY   = 232.8511

EPHEMERIS_TYPE = 0
CLASSIFICATION_TYPE = U
NORAD_CAT_ID   = 66909
ELEMENT_SET_NO = 999
REV_AT_EPOCH   = 830
BSTAR          = .14729127E-2
MEAN_MOTION_DOT = .119439E-2
MEAN_MOTION_DDOT = 0

CCSDS_OMM_VERS = 2.0
CREATION_DATE  = 
ORIGINATOR     = 

OBJECT_NAME    = 1998-067XW
OBJECT_ID      = 1998-067XW
CENTER_NAME    = EARTH
REF_FRAME      = TEME
TIME_SYSTEM    = UTC
MEAN_ELEMENT_THEORY = SGP/SGP4

EPOCH          = 2026-01-24T17:20:17.301408
MEAN_MOTION    = 15.58535861
ECCENTRICITY   = .00018404
INCLINATION    = 51.6289
RA_OF_ASC_NODE = 287.8128
ARG_OF_PERICENTER = 105.2076
MEAN_ANOMALY   = 254.9120

EPHEMERIS_TYPE = 0
CLASSIFICATION_TYPE = U
NORAD_CAT_ID   = 66910
ELEMENT_SET_NO = 999
REV_AT_EPOCH   = 830
BSTAR          = .12614915E-2
MEAN_MOTION_DOT = .99072E-3
MEAN_MOTION_DDOT = 0

CCSDS_OMM_VERS = 2.0
CREATION_DATE  = 
ORIGINATOR     = 

OBJECT_NAME    = 1998-067XX
OBJECT_ID      = 1998-067XX
CENTER_NAME    = EARTH
REF_FRAME      = TEME
TIME_SYSTEM    = UTC
MEAN_ELEMENT_THEORY = SGP/SGP4

EPOCH          = 2026-01-24T18:17:27.873024
MEAN_MOTION    = 15.60326118
ECCENTRICITY   = .00023564
INCLINATION    = 51.6271
RA_OF_ASC_NODE = 287.3275
ARG_OF_PERICENTER = 137.8769
MEAN_ANOMALY   = 222.2406

EPHEMERIS_TYPE = 0
CLASSIFICATION_TYPE = U
NORAD_CAT_ID   = 66911
ELEMENT_SET_NO = 999
REV_AT_EPOCH   = 830
BSTAR          = .15417133E-2
MEAN_MOTION_DOT = .130264E-2
MEAN_MOTION_DDOT = 0

CCSDS_OMM_VERS = 2.0
CREATION_DATE  = 
ORIGINATOR     = 

OBJECT_NAME    = 1998-067XY
OBJECT_ID      = 1998-067XY
CENTER_NAME    = EARTH
REF_FRAME      = TEME
TIME_SYSTEM    = UTC
MEAN_ELEMENT_THEORY = SGP/SGP4

EPOCH          = 2026-01-24T18:16:06.913632
MEAN_MOTION    = 15.56408816
ECCENTRICITY   = .00028798
INCLINATION    = 51.6291
RA_OF_ASC_NODE = 288.0745
ARG_OF_PERICENTER = 92.7401
MEAN_ANOMALY   = 267.3920

EPHEMERIS_TYPE = 0
CLASSIFICATION_TYPE = U
NORAD_CAT_ID   = 66912
ELEMENT_SET_NO = 999
REV_AT_EPOCH   = 829
BSTAR          = .10616044E-2
MEAN_MOTION_DOT = .76682E-3
MEAN_MOTION_DDOT = 0

